{
  "type": "FeatureCollection",
  "features": [
    {
      "type": "Feature",
      "properties": {
        "norad_id": 35616,
        "name": "IRIDIUM 33 DEB",
        "group": "iridium-33-debris",
        "lat": 53.1513024366452,
        "lon": 157.46175950582486,
        "alt_km": 610.5730764364962,
        "timestamp": "2025-12-20T05:41:50.416407+00:00",
        "meta_object_name": "IRIDIUM 33 DEB",
        "meta_object_id": "1997-051QN",
        "meta_epoch": "2025-12-19T06:26:26.767968",
        "meta_mean_motion": 14.81969913,
        "meta_eccentricity": 0.0011079,
        "meta_inclination": 86.3543,
        "meta_ra_of_asc_node": 342.7845,
        "meta_arg_of_pericenter": 141.4908,
        "meta_mean_anomaly": 218.7107,
        "meta_ephemeris_type": 0,
        "meta_classification_type": "U",
        "meta_norad_cat_id": 35616,
        "meta_element_set_no": 999,
        "meta_rev_at_epoch": 87671,
        "meta_bstar": 0.0011657,
        "meta_mean_motion_dot": 9.278e-05,
        "meta_mean_motion_ddot": 0,
        "tle_line1": "1 35616U 97051QN  25353.26836537  .00009278  00000+0  11657-2 0  9998",
        "tle_line2": "2 35616  86.3543 342.7845 0011079 141.4908 218.7107 14.81969913876716"
      },
      "geometry": {
        "type": "Point",
        "coordinates": [
          157.46175950582486,
          53.1513024366452
        ]
      }
    },
    {
      "type": "Feature",
      "properties": {
        "norad_id": 35618,
        "name": "IRIDIUM 33 DEB",
        "group": "iridium-33-debris",
        "lat": 4.932105438263976,
        "lon": 169.9128811190431,
        "alt_km": 740.9360088719877,
        "timestamp": "2025-12-20T05:41:50.416423+00:00",
        "meta_object_name": "IRIDIUM 33 DEB",
        "meta_object_id": "1997-051QQ",
        "meta_epoch": "2025-12-13T19:06:39.662496",
        "meta_mean_motion": 14.52305973,
        "meta_eccentricity": 0.00288889,
        "meta_inclination": 86.3427,
        "meta_ra_of_asc_node": 353.0427,
        "meta_arg_of_pericenter": 17.6332,
        "meta_mean_anomaly": 342.5869,
        "meta_ephemeris_type": 0,
        "meta_classification_type": "U",
        "meta_norad_cat_id": 35618,
        "meta_element_set_no": 999,
        "meta_rev_at_epoch": 65409,
        "meta_bstar": 0.0005678553,
        "meta_mean_motion_dot": 2.341e-05,
        "meta_mean_motion_ddot": 0,
        "tle_line1": "1 35618U 97051QQ  25347.79629239  .00002341  00000+0  56786-3 0  9997",
        "tle_line2": "2 35618  86.3427 353.0427 0028888  17.6332 342.5869 14.52305973654095"
      },
      "geometry": {
        "type": "Point",
        "coordinates": [
          169.9128811190431,
          4.932105438263976
        ]
      }
    },
    {
      "type": "Feature",
      "properties": {
        "norad_id": 35620,
        "name": "IRIDIUM 33 DEB",
        "group": "iridium-33-debris",
        "lat": 44.877926671666614,
        "lon": 30.68847523519671,
        "alt_km": 774.9659908063395,
        "timestamp": "2025-12-20T05:41:50.416439+00:00",
        "meta_object_name": "IRIDIUM 33 DEB",
        "meta_object_id": "1997-051QS",
        "meta_epoch": "2025-12-18T07:58:30.597312",
        "meta_mean_motion": 14.38231155,
        "meta_eccentricity": 0.01396071,
        "meta_inclination": 86.3909,
        "meta_ra_of_asc_node": 215.0948,
        "meta_arg_of_pericenter": 240.37,
        "meta_mean_anomaly": 118.3533,
        "meta_ephemeris_type": 0,
        "meta_classification_type": "U",
        "meta_norad_cat_id": 35620,
        "meta_element_set_no": 999,
        "meta_rev_at_epoch": 60046,
        "meta_bstar": 0.0042608437,
        "meta_mean_motion_dot": 0.00014532,
        "meta_mean_motion_ddot": 0,
        "tle_line1": "1 35620U 97051QS  25352.33229858  .00014532  00000+0  42608-2 0  9991",
        "tle_line2": "2 35620  86.3909 215.0948 0139607 240.3700 118.3533 14.38231155600467"
      },
      "geometry": {
        "type": "Point",
        "coordinates": [
          30.68847523519671,
          44.877926671666614
        ]
      }
    },
    {
      "type": "Feature",
      "properties": {
        "norad_id": 35622,
        "name": "IRIDIUM 33 DEB",
        "group": "iridium-33-debris",
        "lat": -46.271300729040426,
        "lon": 83.8885688285883,
        "alt_km": 556.3032465744973,
        "timestamp": "2025-12-20T05:41:50.416456+00:00",
        "meta_object_name": "IRIDIUM 33 DEB",
        "meta_object_id": "1997-051QU",
        "meta_epoch": "2025-12-19T11:54:56.844000",
        "meta_mean_motion": 15.05406521,
        "meta_eccentricity": 0.0004384,
        "meta_inclination": 86.2024,
        "meta_ra_of_asc_node": 260.2722,
        "meta_arg_of_pericenter": 306.062,
        "meta_mean_anomaly": 227.6567,
        "meta_ephemeris_type": 0,
        "meta_classification_type": "U",
        "meta_norad_cat_id": 35622,
        "meta_element_set_no": 999,
        "meta_rev_at_epoch": 87461,
        "meta_bstar": 0.0026207,
        "meta_mean_motion_dot": 0.00037763,
        "meta_mean_motion_ddot": 0,
        "tle_line1": "1 35622U 97051QU  25353.49649125  .00037763  00000+0  26207-2 0  9992",
        "tle_line2": "2 35622  86.2024 260.2722 0004384 306.0620 227.6567 15.05406521874619"
      },
      "geometry": {
        "type": "Point",
        "coordinates": [
          83.8885688285883,
          -46.271300729040426
        ]
      }
    },
    {
      "type": "Feature",
      "properties": {
        "norad_id": 35628,
        "name": "IRIDIUM 33 DEB",
        "group": "iridium-33-debris",
        "lat": 54.71755102458242,
        "lon": -179.43536552387775,
        "alt_km": 670.1475126284977,
        "timestamp": "2025-12-20T05:41:50.416474+00:00",
        "meta_object_name": "IRIDIUM 33 DEB",
        "meta_object_id": "1997-051RA",
        "meta_epoch": "2025-12-19T19:18:41.055840",
        "meta_mean_motion": 14.67675819,
        "meta_eccentricity": 0.00097154,
        "meta_inclination": 86.3564,
        "meta_ra_of_asc_node": 5.9244,
        "meta_arg_of_pericenter": 316.1179,
        "meta_mean_anomaly": 43.9263,
        "meta_ephemeris_type": 0,
        "meta_classification_type": "U",
        "meta_norad_cat_id": 35628,
        "meta_element_set_no": 999,
        "meta_rev_at_epoch": 86550,
        "meta_bstar": 0.00086845214,
        "meta_mean_motion_dot": 4.965e-05,
        "meta_mean_motion_ddot": 0,
        "tle_line1": "1 35628U 97051RA  25353.80464185  .00004965  00000+0  86845-3 0  9997",
        "tle_line2": "2 35628  86.3564   5.9244 0009715 316.1179  43.9263 14.67675819865507"
      },
      "geometry": {
        "type": "Point",
        "coordinates": [
          -179.43536552387775,
          54.71755102458242
        ]
      }
    },
    {
      "type": "Feature",
      "properties": {
        "norad_id": 35631,
        "name": "IRIDIUM 33 DEB",
        "group": "iridium-33-debris",
        "lat": -13.89587312497415,
        "lon": -161.351480775959,
        "alt_km": 741.256012184931,
        "timestamp": "2025-12-20T05:41:50.416491+00:00",
        "meta_object_name": "IRIDIUM 33 DEB",
        "meta_object_id": "1997-051RD",
        "meta_epoch": "2025-12-17T02:23:33.513216",
        "meta_mean_motion": 14.47323174,
        "meta_eccentricity": 0.00191499,
        "meta_inclination": 86.3669,
        "meta_ra_of_asc_node": 19.0985,
        "meta_arg_of_pericenter": 104.9158,
        "meta_mean_anomaly": 310.5558,
        "meta_ephemeris_type": 0,
        "meta_classification_type": "U",
        "meta_norad_cat_id": 35631,
        "meta_element_set_no": 999,
        "meta_rev_at_epoch": 87260,
        "meta_bstar": 0.00028519596,
        "meta_mean_motion_dot": 1.066e-05,
        "meta_mean_motion_ddot": 0,
        "tle_line1": "1 35631U 97051RD  25351.09969344  .00001066  00000+0  28520-3 0  9992",
        "tle_line2": "2 35631  86.3669  19.0985 0019149 104.9158 310.5558 14.47323174872608"
      },
      "geometry": {
        "type": "Point",
        "coordinates": [
          -161.351480775959,
          -13.89587312497415
        ]
      }
    },
    {
      "type": "Feature",
      "properties": {
        "norad_id": 35680,
        "name": "IRIDIUM 33 DEB",
        "group": "iridium-33-debris",
        "lat": 6.960912052098764,
        "lon": -162.27342051541157,
        "alt_km": 806.5751837124635,
        "timestamp": "2025-12-20T05:41:50.416502+00:00",
        "meta_object_name": "IRIDIUM 33 DEB",
        "meta_object_id": "1997-051RJ",
        "meta_epoch": "2025-12-17T20:16:19.922592",
        "meta_mean_motion": 14.21000805,
        "meta_eccentricity": 0.01505036,
        "meta_inclination": 86.1025,
        "meta_ra_of_asc_node": 19.2625,
        "meta_arg_of_pericenter": 262.1515,
        "meta_mean_anomaly": 279.7609,
        "meta_ephemeris_type": 0,
        "meta_classification_type": "U",
        "meta_norad_cat_id": 35680,
        "meta_element_set_no": 999,
        "meta_rev_at_epoch": 60773,
        "meta_bstar": 0.0028027984,
        "meta_mean_motion_dot": 6.829e-05,
        "meta_mean_motion_ddot": 0,
        "tle_line1": "1 35680U 97051RJ  25351.84467503  .00006829  00000+0  28028-2 0  9993",
        "tle_line2": "2 35680  86.1025  19.2625 0150503 262.1515 279.7609 14.21000805607731"
      },
      "geometry": {
        "type": "Point",
        "coordinates": [
          -162.27342051541157,
          6.960912052098764
        ]
      }
    }
  ]
}